{
  "norad_id": 48650,
  "name": "STARLINK-2672",
  "history": [
    {
      "epoch": "2026-03-28T20:15:51.633504Z",
      "apogee_km": 476.0289370113933,
      "perigee_km": 474.36467343013373,
      "latitude_deg": -3.863127715073521e-05,
      "longitude_deg": -105.25173126697253,
      "height_km": 476.03495932010145,
      "semi_major_axis_km": 6853.333805220764,
      "eccentricity": 0.00012142,
      "inclination_deg": 53.1598,
      "raan_deg": 24.9724,
      "arg_perigee_deg": 85.8659,
      "mean_anomaly_deg": 274.248,
      "mean_motion_rev_day": 15.30206117
    },
    {
      "epoch": "2026-03-29T02:32:04.240032Z",
      "apogee_km": 476.0406495276766,
      "perigee_km": 474.2999094786828,
      "latitude_deg": -2.0977750191729513e-05,
      "longitude_deg": 159.2255480096029,
      "height_km": 476.0723466984924,
      "semi_major_axis_km": 6853.307279503179,
      "eccentricity": 0.000127,
      "inclination_deg": 53.1602,
      "raan_deg": 23.7597,
      "arg_perigee_deg": 90.2608,
      "mean_anomaly_deg": 269.8538,
      "mean_motion_rev_day": 15.30215001
    },
    {
      "epoch": "2026-03-30T02:02:52.408320Z",
      "apogee_km": 476.061652385878,
      "perigee_km": 474.4045075005479,
      "latitude_deg": -2.055216287253594e-05,
      "longitude_deg": 161.00708747309073,
      "height_km": 476.12454928482015,
      "semi_major_axis_km": 6853.370079943213,
      "eccentricity": 0.0001209,
      "inclination_deg": 53.1602,
      "raan_deg": 19.2076,
      "arg_perigee_deg": 89.5359,
      "mean_anomaly_deg": 270.578,
      "mean_motion_rev_day": 15.30193968
    }
  ]
}